[{"OBJECT_NAME":"STARLINK-4313","OBJECT_ID":"2022-077X","EPOCH":"2026-03-09T23:20:35.409984","MEAN_MOTION":15.05677178,"ECCENTRICITY":0.00015862,"INCLINATION":97.6022,"RA_OF_ASC_NODE":251.5078,"ARG_OF_PERICENTER":94.6932,"MEAN_ANOMALY":265.4476,"EPHEMERIS_TYPE":0,"CLASSIFICATION_TYPE":"U","NORAD_CAT_ID":53064,"ELEMENT_SET_NO":999,"REV_AT_EPOCH":20102,"BSTAR":0.00028366412,"MEAN_MOTION_DOT":4.038e-5,"MEAN_MOTION_DDOT":0},{"OBJECT_NAME":"PEGASUS DEB","OBJECT_ID":"1994-029AFV","EPOCH":"2026-03-07T18:19:12.614880","MEAN_MOTION":14.92266405,"ECCENTRICITY":0.0107713,"INCLINATION":81.5817,"RA_OF_ASC_NODE":82.8303,"ARG_OF_PERICENTER":304.7008,"MEAN_ANOMALY":54.4096,"EPHEMERIS_TYPE":0,"CLASSIFICATION_TYPE":"U","NORAD_CAT_ID":39922,"ELEMENT_SET_NO":999,"REV_AT_EPOCH":62967,"BSTAR":0.0012051888,"MEAN_MOTION_DOT":0.00013798,"MEAN_MOTION_DDOT":0}]
